STARLINK-33974          
1 63954U 25099C   26045.09730802  .00020906  00000+0  76668-3 0  9990
2 63954  43.0035 309.8525 0001664 255.9683 104.0984 15.27597096 43724
STARLINK-34170          
1 63955U 25099D   26045.09345869  .00030483  00000+0  11124-2 0  9992
2 63955  43.0024 309.8230 0001036 271.6318  88.4415 15.27587206 43714
STARLINK-34187          
1 63956U 25099E   26045.25002315  .00050721  00000+0  18414-2 0  9993
2 63956  43.0015 308.8563 0001454 272.8011 264.6702 15.27555998  5808
STARLINK-34142          
1 63957U 25099F   26045.14856047  .00032664  00000+0  11905-2 0  9995
2 63957  43.0015 309.3765 0001468 279.0995  80.9690 15.27600324 43737
STARLINK-34144          
1 63958U 25099G   26045.07932916  .00019763  00000+0  72579-3 0  9998
2 63958  42.9995 309.7190 0001000 293.3700  66.7046 15.27579807 43721
STARLINK-34099          
1 63959U 25099H   26045.15628255  .00035504  00000+0  12939-2 0  9990
2 63959  43.0095 309.4263 0003392 250.1335 109.9151 15.27566435 43735
STARLINK-34107          
1 63960U 25099J   26045.07546255  .00021650  00000+0  79369-3 0  9990
2 63960  43.0014 309.6867 0001642 245.4841 114.5839 15.27590472 43727
STARLINK-34121          
1 63961U 25099K   26045.13441898  .00025526  00000+0  93331-3 0  9996
2 63961  43.0054 309.2674 0003036 247.2212 112.8319 15.27599324 43735
STARLINK-34103          
1 63962U 25099L   26045.13055339  .00023543  00000+0  86107-3 0  9998
2 63962  43.0035 309.2384 0001460 261.7043  98.3643 15.27627291 43738
STARLINK-33801          
1 63963U 25099M   26045.05747389  .00034872  00000+0  12696-2 0  9991
2 63963  43.0038 309.5433 0001740 281.6736  78.3921 15.27608679 43726
STARLINK-34135          
1 63964U 25099N   26045.12671845  .00024381  00000+0  89209-3 0  9992
2 63964  43.0035 309.2083 0001602 275.9730  84.0939 15.27598552 43731
STARLINK-34147          
1 63965U 25099P   26045.05361365  .00028932  00000+0  10560-2 0  9997
2 63965  43.0057 309.5111 0002617 251.7748 108.2819 15.27601764 43724
STARLINK-33960          
1 63966U 25099Q   26045.11514797  .00020229  00000+0  74220-3 0  9999
2 63966  43.0039 309.1165 0001668 259.3247 100.7417 15.27597386 43739
STARLINK-34153          
1 63967U 25099R   26045.25002315  .00053469  00000+0  19403-2 0  9996
2 63967  43.0024 308.2703 0001776 265.1016 152.9079 15.27549666  5910
STARLINK-33963          
1 63968U 25099S   26045.11257895  .00023322  00000+0  85388-3 0  9998
2 63968  43.0025 309.0957 0001455 277.8226  82.2461 15.27598031 43731
STARLINK-34112          
1 63969U 25099T   26045.10486463  .00029629  00000+0  10809-2 0  9994
2 63969  43.0068 309.0372 0002475 263.9893  96.0677 15.27608452 43730
