[{"OBJECT_NAME":"STARLINK-33974","OBJECT_ID":"2025-099C","EPOCH":"2026-02-14T02:20:07.412928","MEAN_MOTION":15.27597096,"ECCENTRICITY":0.00016643,"INCLINATION":43.0035,"RA_OF_ASC_NODE":309.8525,"ARG_OF_PERICENTER":255.9683,"MEAN_ANOMALY":104.0984,"EPHEMERIS_TYPE":0,"CLASSIFICATION_TYPE":"U","NORAD_CAT_ID":63954,"ELEMENT_SET_NO":999,"REV_AT_EPOCH":4372,"BSTAR":0.00076667514,"MEAN_MOTION_DOT":0.00020906,"MEAN_MOTION_DDOT":0},{"OBJECT_NAME":"STARLINK-34170","OBJECT_ID":"2025-099D","EPOCH":"2026-02-14T02:14:34.830816","MEAN_MOTION":15.27587206,"ECCENTRICITY":0.0001036,"INCLINATION":43.0024,"RA_OF_ASC_NODE":309.823,"ARG_OF_PERICENTER":271.6318,"MEAN_ANOMALY":88.4415,"EPHEMERIS_TYPE":0,"CLASSIFICATION_TYPE":"U","NORAD_CAT_ID":63955,"ELEMENT_SET_NO":999,"REV_AT_EPOCH":4371,"BSTAR":0.001112437,"MEAN_MOTION_DOT":0.00030483,"MEAN_MOTION_DDOT":0},{"OBJECT_NAME":"STARLINK-34187","OBJECT_ID":"2025-099E","EPOCH":"2026-02-14T06:00:02.000160","MEAN_MOTION":15.27555998,"ECCENTRICITY":0.00014541,"INCLINATION":43.0015,"RA_OF_ASC_NODE":308.8563,"ARG_OF_PERICENTER":272.8011,"MEAN_ANOMALY":264.6702,"EPHEMERIS_TYPE":0,"CLASSIFICATION_TYPE":"U","NORAD_CAT_ID":63956,"ELEMENT_SET_NO":999,"REV_AT_EPOCH":580,"BSTAR":0.0018413764,"MEAN_MOTION_DOT":0.00050721,"MEAN_MOTION_DDOT":0},{"OBJECT_NAME":"STARLINK-34142","OBJECT_ID":"2025-099F","EPOCH":"2026-02-14T03:33:55.624608","MEAN_MOTION":15.27600324,"ECCENTRICITY":0.00014684,"INCLINATION":43.0015,"RA_OF_ASC_NODE":309.3765,"ARG_OF_PERICENTER":279.0995,"MEAN_ANOMALY":80.969,"EPHEMERIS_TYPE":0,"CLASSIFICATION_TYPE":"U","NORAD_CAT_ID":63957,"ELEMENT_SET_NO":999,"REV_AT_EPOCH":4373,"BSTAR":0.0011905369,"MEAN_MOTION_DOT":0.00032664,"MEAN_MOTION_DDOT":0},{"OBJECT_NAME":"STARLINK-34144","OBJECT_ID":"2025-099G","EPOCH":"2026-02-14T01:54:14.039424","MEAN_MOTION":15.27579807,"ECCENTRICITY":0.00010008,"INCLINATION":42.9995,"RA_OF_ASC_NODE":309.719,"ARG_OF_PERICENTER":293.37,"MEAN_ANOMALY":66.7046,"EPHEMERIS_TYPE":0,"CLASSIFICATION_TYPE":"U","NORAD_CAT_ID":63958,"ELEMENT_SET_NO":999,"REV_AT_EPOCH":4372,"BSTAR":0.00072578529,"MEAN_MOTION_DOT":0.00019763,"MEAN_MOTION_DDOT":0},{"OBJECT_NAME":"STARLINK-34099","OBJECT_ID":"2025-099H","EPOCH":"2026-02-14T03:45:02.812320","MEAN_MOTION":15.27566435,"ECCENTRICITY":0.00033923,"INCLINATION":43.0095,"RA_OF_ASC_NODE":309.4263,"ARG_OF_PERICENTER":250.1335,"MEAN_ANOMALY":109.9151,"EPHEMERIS_TYPE":0,"CLASSIFICATION_TYPE":"U","NORAD_CAT_ID":63959,"ELEMENT_SET_NO":999,"REV_AT_EPOCH":4373,"BSTAR":0.0012939378,"MEAN_MOTION_DOT":0.00035504,"MEAN_MOTION_DDOT":0},{"OBJECT_NAME":"STARLINK-34107","OBJECT_ID":"2025-099J","EPOCH":"2026-02-14T01:48:39.964320","MEAN_MOTION":15.27590472,"ECCENTRICITY":0.00016428,"INCLINATION":43.0014,"RA_OF_ASC_NODE":309.6867,"ARG_OF_PERICENTER":245.4841,"MEAN_ANOMALY":114.5839,"EPHEMERIS_TYPE":0,"CLASSIFICATION_TYPE":"U","NORAD_CAT_ID":63960,"ELEMENT_SET_NO":999,"REV_AT_EPOCH":4372,"BSTAR":0.00079368831,"MEAN_MOTION_DOT":0.0002165,"MEAN_MOTION_DDOT":0},{"OBJECT_NAME":"STARLINK-34121","OBJECT_ID":"2025-099K","EPOCH":"2026-02-14T03:13:33.799872","MEAN_MOTION":15.27599324,"ECCENTRICITY":0.0003036,"INCLINATION":43.0054,"RA_OF_ASC_NODE":309.2674,"ARG_OF_PERICENTER":247.2212,"MEAN_ANOMALY":112.8319,"EPHEMERIS_TYPE":0,"CLASSIFICATION_TYPE":"U","NORAD_CAT_ID":63961,"ELEMENT_SET_NO":999,"REV_AT_EPOCH":4373,"BSTAR":0.00093331358,"MEAN_MOTION_DOT":0.00025526,"MEAN_MOTION_DDOT":0},{"OBJECT_NAME":"STARLINK-34103","OBJECT_ID":"2025-099L","EPOCH":"2026-02-14T03:07:59.812896","MEAN_MOTION":15.27627291,"ECCENTRICITY":0.00014601,"INCLINATION":43.0035,"RA_OF_ASC_NODE":309.2384,"ARG_OF_PERICENTER":261.7043,"MEAN_ANOMALY":98.3643,"EPHEMERIS_TYPE":0,"CLASSIFICATION_TYPE":"U","NORAD_CAT_ID":63962,"ELEMENT_SET_NO":999,"REV_AT_EPOCH":4373,"BSTAR":0.00086107426,"MEAN_MOTION_DOT":0.00023543,"MEAN_MOTION_DDOT":0},{"OBJECT_NAME":"STARLINK-33801","OBJECT_ID":"2025-099M","EPOCH":"2026-02-14T01:22:45.744096","MEAN_MOTION":15.27608679,"ECCENTRICITY":0.00017406,"INCLINATION":43.0038,"RA_OF_ASC_NODE":309.5433,"ARG_OF_PERICENTER":281.6736,"MEAN_ANOMALY":78.3921,"EPHEMERIS_TYPE":0,"CLASSIFICATION_TYPE":"U","NORAD_CAT_ID":63963,"ELEMENT_SET_NO":999,"REV_AT_EPOCH":4372,"BSTAR":0.0012696347,"MEAN_MOTION_DOT":0.00034872,"MEAN_MOTION_DDOT":0},{"OBJECT_NAME":"STARLINK-34135","OBJECT_ID":"2025-099N","EPOCH":"2026-02-14T03:02:28.474080","MEAN_MOTION":15.27598552,"ECCENTRICITY":0.00016023,"INCLINATION":43.0035,"RA_OF_ASC_NODE":309.2083,"ARG_OF_PERICENTER":275.973,"MEAN_ANOMALY":84.0939,"EPHEMERIS_TYPE":0,"CLASSIFICATION_TYPE":"U","NORAD_CAT_ID":63964,"ELEMENT_SET_NO":999,"REV_AT_EPOCH":4373,"BSTAR":0.00089208805,"MEAN_MOTION_DOT":0.00024381,"MEAN_MOTION_DDOT":0},{"OBJECT_NAME":"STARLINK-34147","OBJECT_ID":"2025-099P","EPOCH":"2026-02-14T01:17:12.219360","MEAN_MOTION":15.27601764,"ECCENTRICITY":0.00026173,"INCLINATION":43.0057,"RA_OF_ASC_NODE":309.5111,"ARG_OF_PERICENTER":251.7748,"MEAN_ANOMALY":108.2819,"EPHEMERIS_TYPE":0,"CLASSIFICATION_TYPE":"U","NORAD_CAT_ID":63965,"ELEMENT_SET_NO":999,"REV_AT_EPOCH":4372,"BSTAR":0.0010560115,"MEAN_MOTION_DOT":0.00028932,"MEAN_MOTION_DDOT":0},{"OBJECT_NAME":"STARLINK-33960","OBJECT_ID":"2025-099Q","EPOCH":"2026-02-14T02:45:48.784608","MEAN_MOTION":15.27597386,"ECCENTRICITY":0.00016687,"INCLINATION":43.0039,"RA_OF_ASC_NODE":309.1165,"ARG_OF_PERICENTER":259.3247,"MEAN_ANOMALY":100.7417,"EPHEMERIS_TYPE":0,"CLASSIFICATION_TYPE":"U","NORAD_CAT_ID":63966,"ELEMENT_SET_NO":999,"REV_AT_EPOCH":4373,"BSTAR":0.00074220457,"MEAN_MOTION_DOT":0.00020229,"MEAN_MOTION_DDOT":0},{"OBJECT_NAME":"STARLINK-34153","OBJECT_ID":"2025-099R","EPOCH":"2026-02-14T06:00:02.000160","MEAN_MOTION":15.27549666,"ECCENTRICITY":0.00017766,"INCLINATION":43.0024,"RA_OF_ASC_NODE":308.2703,"ARG_OF_PERICENTER":265.1016,"MEAN_ANOMALY":152.9079,"EPHEMERIS_TYPE":0,"CLASSIFICATION_TYPE":"U","NORAD_CAT_ID":63967,"ELEMENT_SET_NO":999,"REV_AT_EPOCH":591,"BSTAR":0.0019402896,"MEAN_MOTION_DOT":0.00053469,"MEAN_MOTION_DDOT":0},{"OBJECT_NAME":"STARLINK-33963","OBJECT_ID":"2025-099S","EPOCH":"2026-02-14T02:42:06.821280","MEAN_MOTION":15.27598031,"ECCENTRICITY":0.00014554,"INCLINATION":43.0025,"RA_OF_ASC_NODE":309.0957,"ARG_OF_PERICENTER":277.8226,"MEAN_ANOMALY":82.2461,"EPHEMERIS_TYPE":0,"CLASSIFICATION_TYPE":"U","NORAD_CAT_ID":63968,"ELEMENT_SET_NO":999,"REV_AT_EPOCH":4373,"BSTAR":0.0008538783,"MEAN_MOTION_DOT":0.00023322,"MEAN_MOTION_DDOT":0},{"OBJECT_NAME":"STARLINK-34112","OBJECT_ID":"2025-099T","EPOCH":"2026-02-14T02:31:00.304032","MEAN_MOTION":15.27608452,"ECCENTRICITY":0.00024753,"INCLINATION":43.0068,"RA_OF_ASC_NODE":309.0372,"ARG_OF_PERICENTER":263.9893,"MEAN_ANOMALY":96.0677,"EPHEMERIS_TYPE":0,"CLASSIFICATION_TYPE":"U","NORAD_CAT_ID":63969,"ELEMENT_SET_NO":999,"REV_AT_EPOCH":4373,"BSTAR":0.0010809127,"MEAN_MOTION_DOT":0.00029629,"MEAN_MOTION_DDOT":0}]
